{
  "norad_id": 65956,
  "name": "KUIPER-00127",
  "history": [
    {
      "epoch": "2026-03-28T18:39:33.196320Z",
      "apogee_km": 641.6574154168584,
      "perigee_km": 640.1954848814621,
      "latitude_deg": -2.5287527871212535e-05,
      "longitude_deg": 162.0191194151835,
      "height_km": 641.8581036450734,
      "semi_major_axis_km": 7019.06345014916,
      "eccentricity": 0.00010414,
      "inclination_deg": 51.8991,
      "raan_deg": 268.1005,
      "arg_perigee_deg": 255.3297,
      "mean_anomaly_deg": 104.7548,
      "mean_motion_rev_day": 14.76331919
    }
  ]
}